ONEWEB-0363             
1 49289U 21090L   26012.71170048 -.00000067  00000+0 -19706-3 0  9993
2 49289  87.9229 305.4532 0002066  77.6456 282.4909 13.20771174209785
ONEWEB-0364             
1 49290U 21090M   26012.74958199  .00000107  00000+0  23223-3 0  9991
2 49290  87.9217 305.4661 0001858  77.1596 282.9745 13.20771315210923
ONEWEB-0365             
1 49291U 21090N   26012.91391793  .00000118  00000+0  26258-3 0  9995
2 49291  87.9236 335.8514 0001692  78.6164 281.5159 13.19726876205942
ONEWEB-0366             
1 49292U 21090P   26012.85112770  .00000097  00000+0  22852-3 0  9997
2 49292  87.9016 320.6717 0001743  79.3452 280.7874 13.14500230207150
ONEWEB-0367             
1 49293U 21090Q   26012.78588194 -.00000012  00000+0 -61968-4 0  9998
2 49293  87.9230 305.4378 0001547  76.0160 284.1145 13.20772612209316
ONEWEB-0368             
1 49294U 21090R   26012.75905285  .00000039  00000+0  64625-4 0  9990
2 49294  87.9222 305.4701 0002267  59.0395 301.0961 13.20772254210464
ONEWEB-0369             
1 49295U 21090S   26012.90917445 -.00000020  00000+0 -81475-4 0  9993
2 49295  87.9226 335.8758 0001775  77.8914 282.2417 13.19723907205937
ONEWEB-0370             
1 49296U 21090T   26012.71959439 -.00000038  00000+0 -12480-3 0  9990
2 49296  87.9229 305.4540 0001521  85.9519 274.1788 13.20771667209341
